GSAT0101 (PRN E11)      
1 37846U 11060A   23086.57266353 -.00000107  00000+0  00000+0 0  9999
2 37846  57.0797  13.6512 0004165   6.9647 353.0406  1.70476090 71048
GSAT0102 (PRN E12)      
1 37847U 11060B   23085.58785438 -.00000108  00000+0  00000+0 0  9991
2 37847  57.0803  13.6777 0005036 341.9760 180.2662  1.70475406 71039
GSAT0103 (PRN E19)      
1 38857U 12055A   23086.02508840  .00000006  00000+0  00000+0 0  9994
2 38857  55.2242 133.9265 0005340 263.8238  96.1875  1.70473673 64921
GSAT0104 (PRN E20)      
1 38858U 12055B   23087.16794362  .00000008  00000+0  00000+0 0  9999
2 38858  55.2250 133.8966 0002904 259.3339 100.7035  1.70473924 64944
GSAT0201 (PRN E18)      
1 40128U 14050A   23087.80014169 -.00000079  00000+0  00000+0 0  9999
2 40128  50.0719 320.9408 1612196 134.2916 240.1195  1.85519392 56496
GSAT0202 (PRN E14)      
1 40129U 14050B   23088.06009808 -.00000076  00000+0  00000+0 0  9990
2 40129  50.0929 319.9984 1609585 135.1190 239.0832  1.85520036 58662
GSAT0203 (PRN E26)      
1 40544U 15017A   23087.52528619 -.00000107  00000+0  00000+0 0  9996
2 40544  56.8751  13.6199 0003419 292.8246  67.1393  1.70475687 49142
GSAT0204 (PRN E22)      
1 40545U 15017B   23086.01886950 -.00000108  00000+0  00000+0 0  9996
2 40545  56.8811  13.6746 0002651 281.6194  78.3500  1.70475510 12164
GSAT0205 (PRN E24)      
1 40889U 15045A   23087.54670434  .00000018  00000+0  00000+0 0  9994
2 40889  55.4514 254.1100 0005751  37.1315 322.8720  1.70473720 46955
GSAT0206 (PRN E30)      
1 40890U 15045B   23088.35398943  .00000017  00000+0  00000+0 0  9997
2 40890  55.4504 254.0835 0003760  36.2701 323.7206  1.70473830 46992
GSAT0209 (PRN E09)      
1 41174U 15079A   23087.35303127  .00000009  00000+0  00000+0 0  9990
2 41174  55.2421 133.5956 0004779 299.5885  60.4338  1.70474906 44711
GSAT0208 (PRN E08)      
1 41175U 15079B   23086.98599665  .00000007  00000+0  00000+0 0  9991
2 41175  55.2397 133.6037 0004150 297.3807  62.6473  1.70474816 45128
GSAT0211 (PRN E02)      
1 41549U 16030A   23087.10649847  .00000018  00000+0  00000+0 0  9999
2 41549  55.6009 254.0808 0003619   8.3780 351.5905  1.70473767 42604
GSAT0210 (PRN E01)      
1 41550U 16030B   23087.98460043  .00000018  00000+0  00000+0 0  9996
2 41550  55.5963 254.0581 0001571 341.3946  18.5643  1.70473595 42610
GSAT0207 (PRN E07)      
1 41859U 16069A   23088.23357607  .00000013  00000+0  00000+0 0  9995
2 41859  54.9044 133.6823 0005256 287.1799  72.8330  1.70474871 39354
GSAT0212 (PRN E03)      
1 41860U 16069B   23088.08805493  .00000012  00000+0  00000+0 0  9990
2 41860  54.9015 133.6834 0003505 304.9811  55.0562  1.70473556 39601
GSAT0213 (PRN E04)      
1 41861U 16069C   23086.69349405  .00000006  00000+0  00000+0 0  9995
2 41861  54.9032 133.7278 0005304 269.8609  90.1489  1.70473675 39449
GSAT0214 (PRN E05)      
1 41862U 16069D   23088.01380556  .00000011  00000+0  00000+0 0  9992
2 41862  54.9022 133.6854 0004316 272.2771  87.7436  1.70473664 39596
GSAT0215 (PRN E21)      
1 43055U 17079A   23088.50367438  .00000018  00000+0  00000+0 0  9995
2 43055  55.5724 253.8709 0000984 353.1780   6.7859  1.70474501 32941
GSAT0216 (PRN E25)      
1 43056U 17079B   23088.20911756  .00000018  00000+0  00000+0 0  9991
2 43056  55.5738 253.8787 0002223 310.0136  49.9317  1.70474608 32955
GSAT0217 (PRN E27)      
1 43057U 17079C   23087.84284973  .00000018  00000+0  00000+0 0  9995
2 43057  55.5719 253.8881 0002382 335.5965  24.3564  1.70474522 32932
GSAT0218 (PRN E31)      
1 43058U 17079D   23086.88970168  .00000018  00000+0  00000+0 0  9997
2 43058  55.5726 253.9119 0002486 299.7174  60.2195  1.70474562 32948
GSAT0221 (PRN E15)      
1 43564U 18060A   23087.96175388 -.00000106  00000+0  00000+0 0  9990
2 43564  57.2563  13.4959 0004438 305.7267  54.2324  1.70475561 29111
GSAT0222 (PRN E33)      
1 43565U 18060B   23087.59506170 -.00000106  00000+0  00000+0 0  9997
2 43565  57.2585  13.5066 0004357 314.8844  45.0805  1.70475493 29158
GSAT0219 (PRN E36)      
1 43566U 18060C   23086.64240905 -.00000107  00000+0  00000+0 0  9995
2 43566  57.2588  13.5344 0004066 317.2725  42.6957  1.70475492 29119
GSAT0220 (PRN E13)      
1 43567U 18060D   23088.03591403 -.00000106  00000+0  00000+0 0  9992
2 43567  57.2589  13.4968 0004121 312.3245  47.6409  1.70475625 29123
GSAT0223 (PRN E34)      
1 49809U 21116A   23084.67688418 -.00000108  00000+0  00000+0 0  9994
2 49809  57.2503  13.4839 0000946 286.1192 262.5358  1.70475560  8071
GSAT0224 (PRN E10)      
1 49810U 21116B   23087.60094111 -.00000106  00000+0  00000+0 0  9991
2 49810  57.2516  13.4035 0000860 337.8906 317.7938  1.70475736  8147
